CTC1_L_00397001-01
1 27698U 22443MZ  26070.40835648  .00000000  00000+0  00000-0 0  9999
2 27698  45.0000   0.0000 0000000   0.0000   0.0000 12.90384021    14
CTC1_L_00397001-02
1 27699U 24647XZ  26070.40835648  .00000000  00000+0  00000-0 0  9998
2 27699  45.0000   0.0000 0000000   0.0000  90.0000 12.90384021    14
CTC1_L_00397001-03
1 27700U 22113VV  26070.40835648  .00000000  00000+0  00000-0 0  9997
2 27700  45.0000   0.0000 0000000   0.0000 180.0000 12.90384021    17
CTC1_L_00397001-04
1 27701U 24907FG  26070.40835648  .00000000  00000+0  00000-0 0  9991
2 27701  45.0000   0.0000 0000000   0.0000 270.0000 12.90384021    18
CTC1_L_00397002-01
1 27702U 26687WJ  26070.40835648  .00000000  00000+0  00000-0 0  9999
2 27702  45.0000  12.0000 0000000   0.0000  12.0000 12.90384021    16
CTC1_L_00397002-02
1 27703U 25277BC  26070.40835648  .00000000  00000+0  00000-0 0  9994
2 27703  45.0000  12.0000 0000000   0.0000 102.0000 12.90384021    17
CTC1_L_00397002-03
1 27704U 23522WS  26070.40835648  .00000000  00000+0  00000-0 0  9996
2 27704  45.0000  12.0000 0000000   0.0000 192.0000 12.90384021    17
CTC1_L_00397002-04
1 27705U 24623FP  26070.40835648  .00000000  00000+0  00000-0 0  9990
2 27705  45.0000  12.0000 0000000   0.0000 282.0000 12.90384021    18
CTC1_L_00397003-01
1 27706U 23916AK  26070.40835648  .00000000  00000+0  00000-0 0  9995
2 27706  45.0000  24.0000 0000000   0.0000  24.0000 12.90384021    16
CTC1_L_00397003-02
1 27707U 23826GF  26070.40835648  .00000000  00000+0  00000-0 0  9996
2 27707  45.0000  24.0000 0000000   0.0000 114.0000 12.90384021    17
CTC1_L_00397003-03
1 27708U 22919UU  26070.40835648  .00000000  00000+0  00000-0 0  9999
2 27708  45.0000  24.0000 0000000   0.0000 204.0000 12.90384021    18
CTC1_L_00397003-04
1 27709U 22298FA  26070.40835648  .00000000  00000+0  00000-0 0  9990
2 27709  45.0000  24.0000 0000000   0.0000 294.0000 12.90384021    18
CTC1_L_00397004-01
1 27710U 22685DH  26070.40835648  .00000000  00000+0  00000-0 0  9992
2 27710  45.0000  36.0000 0000000   0.0000  36.0000 12.90384021    17
CTC1_L_00397004-02
1 27711U 26751QK  26070.40835648  .00000000  00000+0  00000-0 0  9991
2 27711  45.0000  36.0000 0000000   0.0000 126.0000 12.90384021    18
CTC1_L_00397004-03
1 27712U 23586BK  26070.40835648  .00000000  00000+0  00000-0 0  9995
2 27712  45.0000  36.0000 0000000   0.0000 216.0000 12.90384021    19
CTC1_L_00397004-04
1 27713U 23199UU  26070.40835648  .00000000  00000+0  00000-0 0  9996
2 27713  45.0000  36.0000 0000000   0.0000 306.0000 12.90384021    10
CTC1_L_00397005-01
1 27714U 22514TF  26070.40835648  .00000000  00000+0  00000-0 0  9997
2 27714  45.0000  48.0000 0000000   0.0000  48.0000 12.90384021    17
CTC1_L_00397005-02
1 27715U 23120CL  26070.40835648  .00000000  00000+0  00000-0 0  9992
2 27715  45.0000  48.0000 0000000   0.0000 138.0000 12.90384021    18
CTC1_L_00397005-03
1 27716U 25821RM  26070.40835648  .00000000  00000+0  00000-0 0  9993
2 27716  45.0000  48.0000 0000000   0.0000 228.0000 12.90384021    19
CTC1_L_00397005-04
1 27717U 24109LM  26070.40835648  .00000000  00000+0  00000-0 0  9992
2 27717  45.0000  48.0000 0000000   0.0000 318.0000 12.90384021    10
CTC1_L_00397006-01
1 27718U 25778KJ  26070.40835648  .00000000  00000+0  00000-0 0  9996
2 27718  45.0000  60.0000 0000000   0.0000  60.0000 12.90384021    19
CTC1_L_00397006-02
1 27719U 22009VX  26070.40835648  .00000000  00000+0  00000-0 0  9991
2 27719  45.0000  60.0000 0000000   0.0000 150.0000 12.90384021    10
CTC1_L_00397006-03
1 27720U 22862LW  26070.40835648  .00000000  00000+0  00000-0 0  9990
2 27720  45.0000  60.0000 0000000   0.0000 240.0000 12.90384021    12
CTC1_L_00397006-04
1 27721U 24040OM  26070.40835648  .00000000  00000+0  00000-0 0  9991
2 27721  45.0000  60.0000 0000000   0.0000 330.0000 12.90384021    13
CTC1_L_00397007-01
1 27722U 23502UU  26070.40835648  .00000000  00000+0  00000-0 0  9994
2 27722  45.0000  72.0000 0000000   0.0000  72.0000 12.90384021    10
CTC1_L_00397007-02
1 27723U 26100XF  26070.40835648  .00000000  00000+0  00000-0 0  9992
2 27723  45.0000  72.0000 0000000   0.0000 162.0000 12.90384021    11
CTC1_L_00397007-03
1 27724U 26638EI  26070.40835648  .00000000  00000+0  00000-0 0  9999
2 27724  45.0000  72.0000 0000000   0.0000 252.0000 12.90384021    12
CTC1_L_00397007-04
1 27725U 22611PD  26070.40835648  .00000000  00000+0  00000-0 0  9997
2 27725  45.0000  72.0000 0000000   0.0000 342.0000 12.90384021    13
CTC1_L_00397008-01
1 27726U 25892DW  26070.40835648  .00000000  00000+0  00000-0 0  9992
2 27726  45.0000  84.0000 0000000   0.0000  84.0000 12.90384021    10
CTC1_L_00397008-02
1 27727U 26185CP  26070.40835648  .00000000  00000+0  00000-0 0  9999
2 27727  45.0000  84.0000 0000000   0.0000 174.0000 12.90384021    11
CTC1_L_00397008-03
1 27728U 25439MB  26070.40835648  .00000000  00000+0  00000-0 0  9991
2 27728  45.0000  84.0000 0000000   0.0000 264.0000 12.90384021    12
CTC1_L_00397008-04
1 27729U 26788JP  26070.40835648  .00000000  00000+0  00000-0 0  9990
2 27729  45.0000  84.0000 0000000   0.0000 354.0000 12.90384021    13
CTC1_L_00397009-01
1 27730U 24324IA  26070.40835648  .00000000  00000+0  00000-0 0  9996
2 27730  45.0000  96.0000 0000000   0.0000  96.0000 12.90384021    11
CTC1_L_00397009-02
1 27731U 24266PY  26070.40835648  .00000000  00000+0  00000-0 0  9992
2 27731  45.0000  96.0000 0000000   0.0000 186.0000 12.90384021    12
CTC1_L_00397009-03
1 27732U 25723PT  26070.40835648  .00000000  00000+0  00000-0 0  9992
2 27732  45.0000  96.0000 0000000   0.0000 276.0000 12.90384021    13
CTC1_L_00397009-04
1 27733U 25777XL  26070.40835648  .00000000  00000+0  00000-0 0  9992
2 27733  45.0000  96.0000 0000000   0.0000   6.0000 12.90384021    15
CTC1_L_00397010-01
1 27734U 24211EP  26070.40835648  .00000000  00000+0  00000-0 0  9995
2 27734  45.0000 108.0000 0000000   0.0000 108.0000 12.90384021    13
CTC1_L_00397010-02
1 27735U 24009QF  26070.40835648  .00000000  00000+0  00000-0 0  9991
2 27735  45.0000 108.0000 0000000   0.0000 198.0000 12.90384021    13
CTC1_L_00397010-03
1 27736U 25825RF  26070.40835648  .00000000  00000+0  00000-0 0  9999
2 27736  45.0000 108.0000 0000000   0.0000 288.0000 12.90384021    14
CTC1_L_00397010-04
1 27737U 24689QB  26070.40835648  .00000000  00000+0  00000-0 0  9997
2 27737  45.0000 108.0000 0000000   0.0000  18.0000 12.90384021    16
CTC1_L_00397011-01
1 27738U 23617ML  26070.40835648  .00000000  00000+0  00000-0 0  9998
2 27738  45.0000 120.0000 0000000   0.0000 120.0000 12.90384021    15
CTC1_L_00397011-02
1 27739U 22335LT  26070.40835648  .00000000  00000+0  00000-0 0  9995
2 27739  45.0000 120.0000 0000000   0.0000 210.0000 12.90384021    16
CTC1_L_00397011-03
1 27740U 22396EK  26070.40835648  .00000000  00000+0  00000-0 0  9994
2 27740  45.0000 120.0000 0000000   0.0000 300.0000 12.90384021    18
CTC1_L_00397011-04
1 27741U 26311EN  26070.40835648  .00000000  00000+0  00000-0 0  9996
2 27741  45.0000 120.0000 0000000   0.0000  30.0000 12.90384021    19
CTC1_L_00397012-01
1 27742U 25854UA  26070.40835648  .00000000  00000+0  00000-0 0  9998
2 27742  45.0000 132.0000 0000000   0.0000 132.0000 12.90384021    16
CTC1_L_00397012-02
1 27743U 23264MB  26070.40835648  .00000000  00000+0  00000-0 0  9992
2 27743  45.0000 132.0000 0000000   0.0000 222.0000 12.90384021    17
CTC1_L_00397012-03
1 27744U 24708CI  26070.40835648  .00000000  00000+0  00000-0 0  9997
2 27744  45.0000 132.0000 0000000   0.0000 312.0000 12.90384021    18
CTC1_L_00397012-04
1 27745U 22748MM  26070.40835648  .00000000  00000+0  00000-0 0  9990
2 27745  45.0000 132.0000 0000000   0.0000  42.0000 12.90384021    19
CTC1_L_00397013-01
1 27746U 26028DB  26070.40835648  .00000000  00000+0  00000-0 0  9996
2 27746  45.0000 144.0000 0000000   0.0000 144.0000 12.90384021    16
CTC1_L_00397013-02
1 27747U 25252HW  26070.40835648  .00000000  00000+0  00000-0 0  9995
2 27747  45.0000 144.0000 0000000   0.0000 234.0000 12.90384021    17
CTC1_L_00397013-03
1 27748U 23788NL  26070.40835648  .00000000  00000+0  00000-0 0  9998
2 27748  45.0000 144.0000 0000000   0.0000 324.0000 12.90384021    18
CTC1_L_00397013-04
1 27749U 25661CZ  26070.40835648  .00000000  00000+0  00000-0 0  9991
2 27749  45.0000 144.0000 0000000   0.0000  54.0000 12.90384021    19
CTC1_L_00397014-01
1 27750U 26575FL  26070.40835648  .00000000  00000+0  00000-0 0  9998
2 27750  45.0000 156.0000 0000000   0.0000 156.0000 12.90384021    17
CTC1_L_00397014-02
1 27751U 26552SH  26070.40835648  .00000000  00000+0  00000-0 0  9994
2 27751  45.0000 156.0000 0000000   0.0000 246.0000 12.90384021    18
CTC1_L_00397014-03
1 27752U 23158TA  26070.40835648  .00000000  00000+0  00000-0 0  9994
2 27752  45.0000 156.0000 0000000   0.0000 336.0000 12.90384021    19
CTC1_L_00397014-04
1 27753U 22418MM  26070.40835648  .00000000  00000+0  00000-0 0  9993
2 27753  45.0000 156.0000 0000000   0.0000  66.0000 12.90384021    10
CTC1_L_00397015-01
1 27754U 24253PD  26070.40835648  .00000000  00000+0  00000-0 0  9993
2 27754  45.0000 168.0000 0000000   0.0000 168.0000 12.90384021    17
CTC1_L_00397015-02
1 27755U 26197QN  26070.40835648  .00000000  00000+0  00000-0 0  9993
2 27755  45.0000 168.0000 0000000   0.0000 258.0000 12.90384021    18
CTC1_L_00397015-03
1 27756U 26872FC  26070.40835648  .00000000  00000+0  00000-0 0  9994
2 27756  45.0000 168.0000 0000000   0.0000 348.0000 12.90384021    19
CTC1_L_00397015-04
1 27757U 26089MU  26070.40835648  .00000000  00000+0  00000-0 0  9995
2 27757  45.0000 168.0000 0000000   0.0000  78.0000 12.90384021    10
CTC1_L_00397016-01
1 27758U 26360UG  26070.40835648  .00000000  00000+0  00000-0 0  9998
2 27758  45.0000 180.0000 0000000   0.0000 180.0000 12.90384021    19
CTC1_L_00397016-02
1 27759U 25914QT  26070.40835648  .00000000  00000+0  00000-0 0  9993
2 27759  45.0000 180.0000 0000000   0.0000 270.0000 12.90384021    10
